ORBCOMM FM24            
1 25478U 98053D   25335.35446949  .00001177  00000+0  42684-3 0  9995
2 25478  45.0064 196.2114 0002754   1.7219 358.3639 14.38606486421515
ORBCOMM FM25            
1 25479U 98053E   25335.32926495  .00001233  00000+0  44523-3 0  9999
2 25479  45.0051 194.6273 0005079   8.7219 351.3717 14.38576039421802
ORBCOMM FM26            
1 25480U 98053F   25335.31494340  .00000967  00000+0  36644-3 0  9997
2 25480  45.0049 192.3981 0006912  22.7699 337.3454 14.37556155421692
ORBCOMM FM27            
1 25481U 98053G   25335.31316442  .00001213  00000+0  43874-3 0  9992
2 25481  45.0036 194.8424 0001440  22.6112 337.4799 14.38609059421739
ORBCOMM FM28            
1 25482U 98053H   25335.47058821  .00001286  00000+0  46097-3 0  9994
2 25482  45.0036 131.3828 0004334  71.7405 288.3914 14.38739504422440
ORBCOMM FM30            
1 25980U 99065A   25335.49427157  .00001133  00000+0  42016-3 0  9993
2 25980  45.0324  17.5674 0005387 147.1252 212.9932 14.37721066358527
ORBCOMM FM31            
1 25981U 99065B   25335.47531943  .00001079  00000+0  40278-3 0  9998
2 25981  45.0238  11.1127 0003983 187.0556 173.0237 14.37648473358070
ORBCOMM FM32            
1 25982U 99065C   25335.42372457  .00001216  00000+0  45634-3 0  9991
2 25982  45.0166  29.0533 0006192 168.9659 191.1326 14.36704899358644
